[{"OBJECT_NAME":"RASSVET-3 13","OBJECT_ID":"2026-061N","EPOCH":"2026-03-31T15:45:19.160928","MEAN_MOTION":15.88751202,"ECCENTRICITY":0.0026313,"INCLINATION":82.297,"RA_OF_ASC_NODE":99.71,"ARG_OF_PERICENTER":44.3305,"MEAN_ANOMALY":316.0066,"EPHEMERIS_TYPE":0,"CLASSIFICATION_TYPE":"U","NORAD_CAT_ID":68372,"ELEMENT_SET_NO":999,"REV_AT_EPOCH":126,"BSTAR":0.0002264,"MEAN_MOTION_DOT":0.00065502,"MEAN_MOTION_DDOT":3.4232e-7},{"OBJECT_NAME":"RASSVET-3 15","OBJECT_ID":"2026-061Q","EPOCH":"2026-03-31T15:44:51.779904","MEAN_MOTION":15.88835235,"ECCENTRICITY":0.002606,"INCLINATION":82.297,"RA_OF_ASC_NODE":99.7096,"ARG_OF_PERICENTER":44.1575,"MEAN_ANOMALY":316.177,"EPHEMERIS_TYPE":0,"CLASSIFICATION_TYPE":"U","NORAD_CAT_ID":68374,"ELEMENT_SET_NO":999,"REV_AT_EPOCH":126,"BSTAR":0.00022471,"MEAN_MOTION_DOT":0.00065252,"MEAN_MOTION_DDOT":3.3249e-7},{"OBJECT_NAME":"RASSVET-3 16","OBJECT_ID":"2026-061R","EPOCH":"2026-03-31T15:43:56.331840","MEAN_MOTION":15.89296702,"ECCENTRICITY":0.0025462,"INCLINATION":82.2966,"RA_OF_ASC_NODE":99.7084,"ARG_OF_PERICENTER":44.5811,"MEAN_ANOMALY":315.7502,"EPHEMERIS_TYPE":0,"CLASSIFICATION_TYPE":"U","NORAD_CAT_ID":68375,"ELEMENT_SET_NO":999,"REV_AT_EPOCH":126,"BSTAR":0.00039091,"MEAN_MOTION_DOT":0.00115755,"MEAN_MOTION_DDOT":3.5198e-6},{"OBJECT_NAME":"SUPERVIEW NEO-2 OBJECT A","OBJECT_ID":"2026-062A","EPOCH":"2026-04-01T17:00:58.160736","MEAN_MOTION":15.2059613,"ECCENTRICITY":0.0006349,"INCLINATION":97.436,"RA_OF_ASC_NODE":100.0994,"ARG_OF_PERICENTER":241.378,"MEAN_ANOMALY":118.6818,"EPHEMERIS_TYPE":0,"CLASSIFICATION_TYPE":"U","NORAD_CAT_ID":68377,"ELEMENT_SET_NO":999,"REV_AT_EPOCH":103,"BSTAR":0.00015671,"MEAN_MOTION_DOT":3.366e-5,"MEAN_MOTION_DDOT":0},{"OBJECT_NAME":"SUPERVIEW NEO-2 OBJECT B","OBJECT_ID":"2026-062B","EPOCH":"2026-03-31T17:19:08.069952","MEAN_MOTION":15.2058506,"ECCENTRICITY":0.00089524,"INCLINATION":97.4347,"RA_OF_ASC_NODE":99.1253,"ARG_OF_PERICENTER":250.4427,"MEAN_ANOMALY":109.5842,"EPHEMERIS_TYPE":0,"CLASSIFICATION_TYPE":"U","NORAD_CAT_ID":68378,"ELEMENT_SET_NO":999,"REV_AT_EPOCH":88,"BSTAR":0.00019790811,"MEAN_MOTION_DOT":4.27e-5,"MEAN_MOTION_DDOT":0},{"OBJECT_NAME":"CZ-2D R/B","OBJECT_ID":"2026-062C","EPOCH":"2026-04-01T20:35:56.293152","MEAN_MOTION":15.31132632,"ECCENTRICITY":0.0053072,"INCLINATION":97.4979,"RA_OF_ASC_NODE":100.2089,"ARG_OF_PERICENTER":37.666,"MEAN_ANOMALY":322.8278,"EPHEMERIS_TYPE":0,"CLASSIFICATION_TYPE":"U","NORAD_CAT_ID":68379,"ELEMENT_SET_NO":999,"REV_AT_EPOCH":106,"BSTAR":0.00035453,"MEAN_MOTION_DOT":0.0001106,"MEAN_MOTION_DDOT":0},{"OBJECT_NAME":"SHIYAN-33","OBJECT_ID":"2026-064A","EPOCH":"2026-04-01T17:40:20.454240","MEAN_MOTION":15.23177498,"ECCENTRICITY":0.0013465,"INCLINATION":97.4661,"RA_OF_ASC_NODE":167.6574,"ARG_OF_PERICENTER":209.3706,"MEAN_ANOMALY":150.6775,"EPHEMERIS_TYPE":0,"CLASSIFICATION_TYPE":"U","NORAD_CAT_ID":68405,"ELEMENT_SET_NO":999,"REV_AT_EPOCH":85,"BSTAR":0.00026401,"MEAN_MOTION_DOT":6.184e-5,"MEAN_MOTION_DDOT":0},{"OBJECT_NAME":"LPNTSAT-001 (IOD-1)","OBJECT_ID":"2026-065A","EPOCH":"2026-04-01T04:04:57.158400","MEAN_MOTION":15.18233471,"ECCENTRICITY":0.0015408,"INCLINATION":97.4137,"RA_OF_ASC_NODE":333.2788,"ARG_OF_PERICENTER":273.4606,"MEAN_ANOMALY":86.4866,"EPHEMERIS_TYPE":0,"CLASSIFICATION_TYPE":"U","NORAD_CAT_ID":68408,"ELEMENT_SET_NO":999,"REV_AT_EPOCH":57,"BSTAR":0.00023469,"MEAN_MOTION_DOT":4.75e-5,"MEAN_MOTION_DDOT":0},{"OBJECT_NAME":"LPNTSAT-002 (IOD-2)","OBJECT_ID":"2026-065B","EPOCH":"2026-03-30T22:01:49.710144","MEAN_MOTION":15.18186279,"ECCENTRICITY":0.0012511,"INCLINATION":97.4122,"RA_OF_ASC_NODE":332.0512,"ARG_OF_PERICENTER":274.1697,"MEAN_ANOMALY":85.8107,"EPHEMERIS_TYPE":0,"CLASSIFICATION_TYPE":"U","NORAD_CAT_ID":68409,"ELEMENT_SET_NO":999,"REV_AT_EPOCH":36,"BSTAR":8.4452e-5,"MEAN_MOTION_DOT":1.661e-5,"MEAN_MOTION_DDOT":0},{"OBJECT_NAME":"ELECTRON R/B","OBJECT_ID":"2026-065C","EPOCH":"2026-03-29T17:50:42.810720","MEAN_MOTION":15.83047135,"ECCENTRICITY":0.02280831,"INCLINATION":97.3942,"RA_OF_ASC_NODE":331.0573,"ARG_OF_PERICENTER":205.9229,"MEAN_ANOMALY":153.0475,"EPHEMERIS_TYPE":0,"CLASSIFICATION_TYPE":"U","NORAD_CAT_ID":68410,"ELEMENT_SET_NO":999,"REV_AT_EPOCH":15,"BSTAR":0.00025022275,"MEAN_MOTION_DOT":0.00479178,"MEAN_MOTION_DDOT":2.264235e-6},{"OBJECT_NAME":"ELECTRON KICK STAGE R/B","OBJECT_ID":"2026-065D","EPOCH":"2026-03-30T16:54:54.803808","MEAN_MOTION":15.75328689,"ECCENTRICITY":0.02045106,"INCLINATION":97.4169,"RA_OF_ASC_NODE":332.0388,"ARG_OF_PERICENTER":25.2779,"MEAN_ANOMALY":335.8323,"EPHEMERIS_TYPE":0,"CLASSIFICATION_TYPE":"U","NORAD_CAT_ID":68411,"ELEMENT_SET_NO":999,"REV_AT_EPOCH":37,"BSTAR":0.00032519468,"MEAN_MOTION_DOT":0.00204615,"MEAN_MOTION_DDOT":2.15409e-6},{"OBJECT_NAME":"XINZHENGCHENG-01","OBJECT_ID":"2026-066A","EPOCH":"2026-03-31T20:39:16.914816","MEAN_MOTION":15.2982482,"ECCENTRICITY":0.02060898,"INCLINATION":84.9606,"RA_OF_ASC_NODE":276.9718,"ARG_OF_PERICENTER":144.2419,"MEAN_ANOMALY":217.2835,"EPHEMERIS_TYPE":0,"CLASSIFICATION_TYPE":"U","NORAD_CAT_ID":68412,"ELEMENT_SET_NO":999,"REV_AT_EPOCH":22,"BSTAR":0.00049493725,"MEAN_MOTION_DOT":0.0002782,"MEAN_MOTION_DDOT":0},{"OBJECT_NAME":"LIJIAN-2 R/B","OBJECT_ID":"2026-066B","EPOCH":"2026-03-31T18:24:33.055200","MEAN_MOTION":15.04815352,"ECCENTRICITY":0.06052317,"INCLINATION":84.7161,"RA_OF_ASC_NODE":277.02,"ARG_OF_PERICENTER":206.6432,"MEAN_ANOMALY":150.2503,"EPHEMERIS_TYPE":0,"CLASSIFICATION_TYPE":"U","NORAD_CAT_ID":68413,"ELEMENT_SET_NO":999,"REV_AT_EPOCH":20,"BSTAR":0.00021174642,"MEAN_MOTION_DOT":0.02524605,"MEAN_MOTION_DDOT":-1.158743e-6},{"OBJECT_NAME":"SL-4 R/B","OBJECT_ID":"2026-061S","EPOCH":"2026-04-01T11:16:52.872960","MEAN_MOTION":15.90800342,"ECCENTRICITY":0.0026417,"INCLINATION":82.3054,"RA_OF_ASC_NODE":98.7857,"ARG_OF_PERICENTER":37.7313,"MEAN_ANOMALY":322.5805,"EPHEMERIS_TYPE":0,"CLASSIFICATION_TYPE":"U","NORAD_CAT_ID":68537,"ELEMENT_SET_NO":999,"REV_AT_EPOCH":139,"BSTAR":0.00057404,"MEAN_MOTION_DOT":0.00183726,"MEAN_MOTION_DDOT":1.0942e-5},{"OBJECT_NAME":"ARTEMIS 2","OBJECT_ID":"2026-069A","EPOCH":"2026-04-01T22:43:20.999712","MEAN_MOTION":13.3612228,"ECCENTRICITY":0.146527,"INCLINATION":28.5261,"RA_OF_ASC_NODE":3.4072,"ARG_OF_PERICENTER":67.9232,"MEAN_ANOMALY":24.0215,"EPHEMERIS_TYPE":0,"CLASSIFICATION_TYPE":"U","NORAD_CAT_ID":68538,"ELEMENT_SET_NO":999,"REV_AT_EPOCH":0,"BSTAR":0,"MEAN_MOTION_DOT":0,"MEAN_MOTION_DDOT":0}]
